[{"OBJECT_NAME":"LUDI TANCE 1-01B (L-SAR 01B)","OBJECT_ID":"2022-018A","EPOCH":"2026-03-07T13:37:23.300256","MEAN_MOTION":14.88408066,"ECCENTRICITY":0.0001606,"INCLINATION":97.8122,"RA_OF_ASC_NODE":75.4265,"ARG_OF_PERICENTER":91.5383,"MEAN_ANOMALY":268.6018,"EPHEMERIS_TYPE":0,"CLASSIFICATION_TYPE":"U","NORAD_CAT_ID":51822,"ELEMENT_SET_NO":999,"REV_AT_EPOCH":21859,"BSTAR":3.0068e-5,"MEAN_MOTION_DOT":2.24e-6,"MEAN_MOTION_DDOT":0},{"OBJECT_NAME":"CZ-4 DEB","OBJECT_ID":"1990-081BL","EPOCH":"2026-03-09T17:23:57.962688","MEAN_MOTION":14.8316917,"ECCENTRICITY":0.0022936,"INCLINATION":99.0368,"RA_OF_ASC_NODE":144.8877,"ARG_OF_PERICENTER":127.0337,"MEAN_ANOMALY":352.4491,"EPHEMERIS_TYPE":0,"CLASSIFICATION_TYPE":"U","NORAD_CAT_ID":20900,"ELEMENT_SET_NO":999,"REV_AT_EPOCH":83354,"BSTAR":0.0030046619,"MEAN_MOTION_DOT":0.00024647,"MEAN_MOTION_DDOT":0}]
